{
    "links": {
        "self": "http://www.neowsapp.com/rest/v1/neo/3787633?api_key=iIulBulltgU6a56xZRHN4H3l9WmuAYTsLGpBGhQ2"
    },
    "id": "3787633",
    "neo_reference_id": "3787633",
    "name": "(2017 UH3)",
    "designation": "2017 UH3",
    "nasa_jpl_url": "http://ssd.jpl.nasa.gov/sbdb.cgi?sstr=3787633",
    "absolute_magnitude_h": 22.3,
    "estimated_diameter": {
        "kilometers": {
            "estimated_diameter_min": 0.0921626549,
            "estimated_diameter_max": 0.2060819612
        },
        "meters": {
            "estimated_diameter_min": 92.1626548503,
            "estimated_diameter_max": 206.0819612321
        },
        "miles": {
            "estimated_diameter_min": 0.057267201,
            "estimated_diameter_max": 0.1280533543
        },
        "feet": {
            "estimated_diameter_min": 302.370924539,
            "estimated_diameter_max": 676.1219416887
        }
    },
    "is_potentially_hazardous_asteroid": false,
    "close_approach_data": [
        {
            "close_approach_date": "2017-10-04",
            "close_approach_date_full": "2017-Oct-04 05:26",
            "epoch_date_close_approach": 1507094760000,
            "relative_velocity": {
                "kilometers_per_second": "16.4883496161",
                "kilometers_per_hour": "59358.0586178995",
                "miles_per_hour": "36882.7892562165"
            },
            "miss_distance": {
                "astronomical": "0.0988731722",
                "lunar": "38.4616639858",
                "kilometers": "14791215.961263214",
                "miles": "9190835.4136277932"
            },
            "orbiting_body": "Earth"
        }
    ],
    "orbital_data": {
        "orbit_id": "4",
        "orbit_determination_date": "2017-11-16 07:20:42",
        "first_observation_date": "2017-10-21",
        "last_observation_date": "2017-11-10",
        "data_arc_in_days": 20,
        "observations_used": 39,
        "orbit_uncertainty": "8",
        "minimum_orbit_intersection": ".0235682",
        "jupiter_tisserand_invariant": "3.783",
        "epoch_osculation": "2458058.5",
        "eccentricity": ".645515956469325",
        "semi_major_axis": "1.803100769518924",
        "inclination": "3.41204479247068",
        "ascending_node_longitude": "229.3618854519775",
        "orbital_period": "884.3586436996877",
        "perihelion_distance": ".6391704516723399",
        "perihelion_argument": "62.23286160299056",
        "aphelion_distance": "2.967031087365509",
        "perihelion_time": "2457983.306498341091",
        "mean_anomaly": "30.60936961498124",
        "mean_motion": ".4070746665560376",
        "equinox": "J2000",
        "orbit_class": {
            "orbit_class_type": "APO",
            "orbit_class_description": "Near-Earth asteroid orbits which cross the Earth’s orbit similar to that of 1862 Apollo",
            "orbit_class_range": "a (semi-major axis) > 1.0 AU; q (perihelion) < 1.017 AU"
        }
    },
    "is_sentry_object": false
}